NORAD_CAT_ID,OBJECT_NAME,OBJECT_TYPE,EPOCH,MEAN_MOTION,ECCENTRICITY,INCLINATION,RA_OF_ASC_NODE,ARG_OF_PERICENTER,MEAN_ANOMALY,BSTAR,MEAN_MOTION_DOT,MEAN_MOTION_DDOT,TLE_LINE0,TLE_LINE1,TLE_LINE2,SEMIMAJOR_AXIS,PERIOD,APOGEE,PERIGEE,DECAYED
53029.0,STARLINK-4143,PAYLOAD,2024-02-17 19:13:37,15.08851084,0.0001318,53.2163,204.9911,92.3662,267.7481,0.00025489,3.772e-05,0.0,0 STARLINK-4143,1 53029U 22076AV  24048.80112812  .00003772  00000-0  25489-3 0  9997,2 53029  53.2163 204.9911 0001318  92.3662 267.7481 15.08851084 90237,6917.847,95.437,540.623,538.8,0.0
53029.0,STARLINK-4143,PAYLOAD,2024-02-17 20:49:00,15.08853874,0.0001304,53.2161,204.6935,92.1238,267.9904,0.0002949,4.41e-05,0.0,0 STARLINK-4143,1 53029U 22076AV  24048.86736670  .00004410  00000-0  29490-3 0  9993,2 53029  53.2161 204.6935 0001304  92.1238 267.9904 15.08853874 89778,6917.838,95.437,540.605,538.801,0.0
53029.0,STARLINK-4143,PAYLOAD,2024-02-18 09:32:05,15.08848845,0.0002159,53.2157,202.3151,87.9105,272.2135,0.00021093,3.071e-05,0.0,0 STARLINK-4143,1 53029U 22076AV  24049.39729062  .00003071  00000-0  21093-3 0  9992,2 53029  53.2157 202.3151 0002159  87.9105 272.2135 15.08848845 90322,6917.853,95.437,541.212,538.225,0.0
53029.0,STARLINK-4143,PAYLOAD,2024-02-18 14:18:15,15.0884334,0.0001521,53.2163,201.423,81.6118,278.5047,0.00012264,1.665e-05,0.0,0 STARLINK-4143,1 53029U 22076AV  24049.59601228  .00001665  00000-0  12264-3 0  9994,2 53029  53.2163 201.4230 0001521  81.6118 278.5047 15.08843340 89889,6917.87,95.437,540.787,538.683,0.0
53029.0,STARLINK-4143,PAYLOAD,2024-02-18 17:29:01,15.08847721,0.000123,53.2146,200.8258,95.7186,264.3946,0.00016259,2.301e-05,0.0,0 STARLINK-4143,1 53029U 22076AV  24049.72848876  .00002301  00000-0  16259-3 0  9997,2 53029  53.2146 200.8258 0001230  95.7186 264.3946 15.08847721 89902,6917.857,95.437,540.573,538.871,0.0
53029.0,STARLINK-4143,PAYLOAD,2024-02-19 14:09:03,15.088331,0.0001813,53.2157,196.964,62.2475,297.8701,3.5935e-05,2.84e-06,0.0,0 STARLINK-4143,1 53029U 22076AV  24050.58962025  .00000284  00000-0  35935-4 0  9997,2 53029  53.2157 196.9640 0001813  62.2475 297.8701 15.08833100 90033,6917.901,95.438,541.021,538.512,0.0
53029.0,STARLINK-4143,PAYLOAD,2024-02-19 18:55:12,15.08844329,0.0001382,53.2162,196.0703,87.0603,273.0547,8.625e-05,1.085e-05,0.0,0 STARLINK-4143,1 53029U 22076AV  24050.78833489  .00001085  00000-0  86250-4 0  9996,2 53029  53.2162 196.0703 0001382  87.0603 273.0547 15.08844329 90533,6917.867,95.437,540.688,538.776,0.0
53029.0,STARLINK-4143,PAYLOAD,2024-02-20 02:52:08,15.08834894,0.0001365,53.2152,194.5824,86.0785,274.0364,3.3562e-05,2.46e-06,0.0,0 STARLINK-4143,1 53029U 22076AV  24051.11953889  .00000246  00000-0  33562-4 0  9997,2 53029  53.2152 194.5824 0001365  86.0785 274.0364 15.08834894 90589,6917.896,95.438,540.705,538.817,0.0
53029.0,STARLINK-4143,PAYLOAD,2024-02-20 15:35:13,15.088423,0.0001183,53.2149,192.2012,92.7247,267.388,0.00012301,1.671e-05,0.0,0 STARLINK-4143,1 53029U 22076AV  24051.64945640  .00001671  00000-0  12301-3 0  9991,2 53029  53.2149 192.2012 0001183  92.7247 267.3880 15.08842300 90190,6917.873,95.437,540.557,538.92,0.0
53029.0,STARLINK-4143,PAYLOAD,2024-02-20 18:45:59,15.08849579,0.0001345,53.2154,191.6064,91.3702,268.7445,0.00023461,3.449e-05,0.0,0 STARLINK-4143,1 53029U 22076AV  24051.78193336  .00003449  00000-0  23461-3 0  9997,2 53029  53.2154 191.6064 0001345  91.3702 268.7445 15.08849579 90688,6917.851,95.437,540.647,538.786,0.0
53029.0,STARLINK-4143,PAYLOAD,2024-02-21 12:15:13,15.0884323,0.0001676,53.2177,188.3334,106.7422,253.3754,0.0001885,2.713e-05,0.0,0 STARLINK-4143,1 53029U 22076AV  24052.51057801  .00002713  00000-0  18850-3 0  9994,2 53029  53.2177 188.3334 0001676 106.7422 253.3754 15.08843230 90796,6917.871,95.437,540.895,538.576,0.0
53029.0,STARLINK-4143,PAYLOAD,2024-02-21 15:26:00,15.08842968,0.000163,53.2174,187.7392,95.5606,264.5572,0.00012984,1.779e-05,0.0,0 STARLINK-4143,1 53029U 22076AV  24052.64305807  .00001779  00000-0  12984-3 0  9993,2 53029  53.2174 187.7392 0001630  95.5606 264.5572 15.08842968 90349,6917.871,95.437,540.864,538.609,0.0
53029.0,STARLINK-4143,PAYLOAD,2024-02-22 12:06:01,15.08840654,0.0001519,53.2164,183.8777,95.5331,264.5834,7.0694e-05,8.37e-06,0.0,0 STARLINK-4143,1 53029U 22076AV  24053.50417961  .00000837  00000-0  70694-4 0  9991,2 53029  53.2164 183.8777 0001519  95.5331 264.5834 15.08840654 90940,6917.878,95.438,540.794,538.693,0.0
53029.0,STARLINK-4143,PAYLOAD,2024-02-22 15:16:47,15.08841578,0.0001336,53.216,183.2828,95.6236,264.4908,0.00010617,1.402e-05,0.0,0 STARLINK-4143,1 53029U 22076AV  24053.63665876  .00001402  00000-0  10617-3 0  9992,2 53029  53.2160 183.2828 0001336  95.6236 264.4908 15.08841578 90496,6917.876,95.437,540.665,538.816,0.0
53029.0,STARLINK-4143,PAYLOAD,2024-02-23 13:32:11,15.08841067,0.0001532,53.2173,179.1205,99.353,260.7636,6.7277e-05,7.83e-06,0.0,0 STARLINK-4143,1 53029U 22076AV  24054.56401980  .00000783  00000-0  67277-4 0  9995,2 53029  53.2173 179.1205 0001532  99.3530 260.7636 15.08841067 90635,6917.877,95.437,540.802,538.682,0.0
53029.0,STARLINK-4143,PAYLOAD,2024-02-23 18:18:20,15.08845474,0.0001506,53.2169,178.2269,99.8866,260.2296,9.7685e-05,1.267e-05,0.0,0 STARLINK-4143,1 53029U 22076AV  24054.76273567  .00001267  00000-0  97685-4 0  9999,2 53029  53.2169 178.2269 0001506  99.8866 260.2296 15.08845474 91137,6917.864,95.437,540.77,538.687,0.0
53029.0,STARLINK-4143,PAYLOAD,2024-02-24 11:47:35,15.08840458,0.0001463,53.216,174.9521,97.9706,262.1452,5.4129e-05,5.74e-06,0.0,0 STARLINK-4143,1 53029U 22076AV  24055.49138135  .00000574  00000-0  54129-4 0  9997,2 53029  53.2160 174.9521 0001463  97.9706 262.1452 15.08840458 91240,6917.879,95.438,540.756,538.732,0.0
53029.0,STARLINK-4143,PAYLOAD,2024-02-24 14:58:21,15.088428,0.0001345,53.2167,174.3634,87.1826,272.932,0.00010272,1.347e-05,0.0,0 STARLINK-4143,1 53029U 22076AV  24055.62385937  .00001347  00000-0  10272-3 0  9995,2 53029  53.2167 174.3634 0001345  87.1826 272.9320 15.08842800 90794,6917.872,95.437,540.667,538.806,0.0
53029.0,STARLINK-4143,PAYLOAD,2024-02-25 13:13:45,15.08844916,0.0001405,53.2165,170.2025,91.7611,268.3543,4.6258e-05,4.48e-06,0.0,0 STARLINK-4143,1 53029U 22076AV  24056.55122087  .00000448  00000-0  46258-4 0  9998,2 53029  53.2165 170.2025 0001405  91.7611 268.3543 15.08844916 91406,6917.865,95.437,540.702,538.758,0.0
53029.0,STARLINK-4143,PAYLOAD,2024-02-25 14:49:08,15.08853514,0.0001838,53.2165,169.9065,123.2232,236.8936,-1.4955e-05,-5.26e-06,0.0,0 STARLINK-4143,1 53029U 22076AV  24056.61745572 -.00000526  00000-0 -14955-4 0  9993,2 53029  53.2165 169.9065 0001838 123.2232 236.8936 15.08853514 90943,6917.839,95.437,540.976,538.433,0.0
53029.0,STARLINK-4143,PAYLOAD,2024-02-25 16:24:31,15.08853731,0.0001311,53.2168,169.6074,85.3201,274.7941,7.3981e-05,8.9e-06,0.0,0 STARLINK-4143,1 53029U 22076AV  24056.68369392  .00000890  00000-0  73981-4 0  9998,2 53029  53.2168 169.6074 0001311  85.3201 274.7941 15.08853731 91425,6917.838,95.437,540.61,538.796,0.0
53029.0,STARLINK-4143,PAYLOAD,2024-02-26 00:21:27,15.08840183,0.0001844,53.217,168.1143,71.912,288.2073,9.1518e-05,1.169e-05,0.0,0 STARLINK-4143,1 53029U 22076AV  24057.01490409  .00001169  00000-0  91518-4 0  9996,2 53029  53.2170 168.1143 0001844  71.9120 288.2073 15.08840183 91479,6917.88,95.438,541.02,538.469,0.0
53029.0,STARLINK-4143,PAYLOAD,2024-02-26 11:29:10,15.08825552,0.0001491,53.2159,166.0383,83.2974,276.8188,-6.1799e-05,-1.271e-05,0.0,0 STARLINK-4143,1 53029U 22076AV  24057.47859953 -.00001271  00000-0 -61799-4 0  9993,2 53029  53.2159 166.0383 0001491  83.2974 276.8188 15.08825552 91541,6917.925,95.438,540.821,538.758,0.0
53029.0,STARLINK-4143,PAYLOAD,2024-02-26 14:39:57,15.08827195,0.0001509,53.2168,165.4439,83.7158,276.4006,-4.8062e-05,-1.053e-05,0.0,0 STARLINK-4143,1 53029U 22076AV  24057.61107898 -.00001053  00000-0 -48062-4 0  9999,2 53029  53.2168 165.4439 0001509  83.7158 276.4006 15.08827195 91095,6917.92,95.438,540.828,538.741,0.0
53029.0,STARLINK-4143,PAYLOAD,2024-02-26 16:15:19,15.08835324,0.0001324,53.2156,165.1474,84.5094,275.6049,2.5825e-05,1.23e-06,0.0,0 STARLINK-4143,1 53029U 22076AV  24057.67731247  .00000123  00000-0  25825-4 0  9993,2 53029  53.2156 165.1474 0001324  84.5094 275.6049 15.08835324 91575,6917.895,95.438,540.676,538.844,0.0
53029.0,STARLINK-4143,PAYLOAD,2024-02-27 11:19:57,15.08844846,0.0001504,53.2159,161.5773,78.3169,281.7992,0.00010995,1.463e-05,0.0,0 STARLINK-4143,1 53029U 22076AV  24058.47218752  .00001463  00000-0  10995-3 0  9992,2 53029  53.2159 161.5773 0001504  78.3169 281.7992 15.08844846 91691,6917.866,95.437,540.771,538.69,0.0
53029.0,STARLINK-4143,PAYLOAD,2024-02-27 14:30:43,15.0884632,0.0001453,53.2152,160.9828,79.1759,280.9396,0.00031279,4.694e-05,0.0,0 STARLINK-4143,1 53029U 22076AV  24058.60466812  .00004694  00000-0  31279-3 0  9996,2 53029  53.2152 160.9828 0001453  79.1759 280.9396 15.08846320 91244,6917.861,95.437,540.731,538.721,0.0
53029.0,STARLINK-4143,PAYLOAD,2024-02-28 12:46:07,15.08838344,0.0001378,53.2149,156.8183,83.1092,277.0057,0.00021696,3.167e-05,0.0,0 STARLINK-4143,1 53029U 22076AV  24059.53203315  .00003167  00000-0  21696-3 0  9992,2 53029  53.2149 156.8183 0001378  83.1092 277.0057 15.08838344 91854,6917.885,95.438,540.704,538.797,0.0
53029.0,STARLINK-4143,PAYLOAD,2024-02-29 12:36:54,15.08850477,0.0001397,53.2151,152.3578,84.7477,275.3674,0.00013013,1.784e-05,0.0,0 STARLINK-4143,1 53029U 22076AV  24060.52562657  .00001784  00000-0  13013-3 0  9997,2 53029  53.2151 152.3578 0001397  84.7477 275.3674 15.08850477 91533,6917.848,95.437,540.68,538.747,0.0
53029.0,STARLINK-4143,PAYLOAD,2024-03-01 12:27:41,15.08846271,0.0001413,53.2149,147.8964,90.5928,269.5226,0.00015911,2.246e-05,0.0,0 STARLINK-4143,1 53029U 22076AV  24061.51922647  .00002246  00000-0  15911-3 0  9999,2 53029  53.2149 147.8964 0001413  90.5928 269.5226 15.08846271 91684,6917.861,95.437,540.704,538.749,0.0
